[{"OBJECT_NAME":"STARLINK-5798","OBJECT_ID":"2023-042BG","EPOCH":"2026-03-09T22:00:01.999584","MEAN_MOTION":15.108097,"ECCENTRICITY":8.899e-5,"INCLINATION":43.001,"RA_OF_ASC_NODE":28.4818,"ARG_OF_PERICENTER":317.5399,"MEAN_ANOMALY":205.8685,"EPHEMERIS_TYPE":0,"CLASSIFICATION_TYPE":"U","NORAD_CAT_ID":56040,"ELEMENT_SET_NO":999,"REV_AT_EPOCH":568,"BSTAR":0.0025740213,"MEAN_MOTION_DOT":0.00043558,"MEAN_MOTION_DDOT":0},{"OBJECT_NAME":"VENUS","OBJECT_ID":"2017-044B","EPOCH":"2026-03-09T23:09:30.995712","MEAN_MOTION":15.13501273,"ECCENTRICITY":0.0003369,"INCLINATION":97.2854,"RA_OF_ASC_NODE":109.9366,"ARG_OF_PERICENTER":18.8951,"MEAN_ANOMALY":341.2406,"EPHEMERIS_TYPE":0,"CLASSIFICATION_TYPE":"U","NORAD_CAT_ID":42901,"ELEMENT_SET_NO":999,"REV_AT_EPOCH":46594,"BSTAR":0.00021725971,"MEAN_MOTION_DOT":3.827e-5,"MEAN_MOTION_DDOT":0}]
